NORAD_CAT_ID,OBJECT_NAME,OBJECT_TYPE,EPOCH,MEAN_MOTION,ECCENTRICITY,INCLINATION,RA_OF_ASC_NODE,ARG_OF_PERICENTER,MEAN_ANOMALY,BSTAR,MEAN_MOTION_DOT,MEAN_MOTION_DDOT,TLE_LINE0,TLE_LINE1,TLE_LINE2,SEMIMAJOR_AXIS,PERIOD,APOGEE,PERIGEE,DECAYED
49457.0,STARLINK-3132,PAYLOAD,2023-12-25 21:47:29,15.08842794,0.0001583,53.2164,231.9431,114.5133,245.6025,5.4241e-05,5.75e-06,0.0,0 STARLINK-3132,1 49457U 21104BB  23359.90797686  .00000575  00000-0  54241-4 0  9998,2 49457  53.2164 231.9431 0001583 114.5133 245.6025 15.08842794117281,6917.872,95.437,540.832,538.642,0.0
49457.0,STARLINK-3132,PAYLOAD,2023-12-26 00:58:15,15.08847295,0.0001319,53.2156,231.3466,102.9556,257.1584,5.7717e-05,6.31e-06,0.0,0 STARLINK-3132,1 49457U 21104BB  23360.04045417  .00000631  00000-0  57717-4 0  9997,2 49457  53.2156 231.3466 0001319 102.9556 257.1584 15.08847295118371,6917.858,95.437,540.636,538.811,0.0
49457.0,STARLINK-3132,PAYLOAD,2023-12-26 20:02:53,15.08843878,0.0001359,53.2158,227.7758,99.4809,260.6336,1.2045e-05,-9.6e-07,0.0,0 STARLINK-3132,1 49457U 21104BB  23360.83533785 -.00000096  00000-0  12045-4 0  9995,2 49457  53.2158 227.7758 0001359  99.4809 260.6336 15.08843878118491,6917.869,95.437,540.674,538.793,0.0
49457.0,STARLINK-3132,PAYLOAD,2023-12-26 21:38:16,15.08844824,0.0001454,53.2164,227.4791,92.9172,267.1986,3.4245e-05,2.57e-06,0.0,0 STARLINK-3132,1 49457U 21104BB  23360.90157701  .00000257  00000-0  34245-4 0  9997,2 49457  53.2164 227.4791 0001454  92.9172 267.1986 15.08844824117437,6917.866,95.437,540.737,538.725,0.0
49457.0,STARLINK-3132,PAYLOAD,2023-12-27 19:53:40,15.08825361,0.0001411,53.2156,223.3155,103.8186,256.2964,0.00030598,4.583e-05,0.0,0 STARLINK-3132,1 49457U 21104BB  23361.82893912  .00004583  00000-0  30598-3 0  9992,2 49457  53.2156 223.3155 0001411 103.8186 256.2964 15.08825361118641,6917.925,95.438,540.766,538.814,0.0
49457.0,STARLINK-3132,PAYLOAD,2023-12-27 21:29:03,15.08829415,0.0001339,53.2159,223.0181,89.808,270.3066,0.00025209,3.725e-05,0.0,0 STARLINK-3132,1 49457U 21104BB  23361.89517856  .00003725  00000-0  25209-3 0  9999,2 49457  53.2159 223.0181 0001339  89.8080 270.3066 15.08829415117581,6917.913,95.438,540.704,538.851,0.0
49457.0,STARLINK-3132,PAYLOAD,2023-12-28 00:39:49,15.0884141,0.0001296,53.2154,222.4231,89.8228,270.2913,0.00011884,1.604e-05,0.0,0 STARLINK-3132,1 49457U 21104BB  23362.02765521  .00001604  00000-0  11884-3 0  9997,2 49457  53.2154 222.4231 0001296  89.8228 270.2913 15.08841410118671,6917.876,95.437,540.638,538.845,0.0
49457.0,STARLINK-3132,PAYLOAD,2023-12-28 14:58:18,15.08839013,0.0001493,53.2153,219.7463,83.3544,276.7618,2.4668e-05,1.05e-06,0.0,0 STARLINK-3132,1 49457U 21104BB  23362.62382011  .00000105  00000-0  24668-4 0  9992,2 49457  53.2153 219.7463 0001493  83.3544 276.7618 15.08839013117695,6917.883,95.438,540.781,538.716,0.0
49457.0,STARLINK-3132,PAYLOAD,2023-12-28 19:44:27,15.08839375,0.0001422,53.2156,218.8537,93.0349,267.0806,1.7763e-05,-5e-08,0.0,0 STARLINK-3132,1 49457U 21104BB  23362.82253924 -.00000005  00000-0  17763-4 0  9992,2 49457  53.2156 218.8537 0001422  93.0349 267.0806 15.08839375118798,6917.882,95.438,540.731,538.764,0.0
49457.0,STARLINK-3132,PAYLOAD,2023-12-28 21:19:50,15.08839473,0.0001421,53.2157,218.5563,92.9079,267.2075,1.398e-05,-6.5e-07,0.0,0 STARLINK-3132,1 49457U 21104BB  23362.88877870 -.00000065  00000-0  13980-4 0  9993,2 49457  53.2157 218.5563 0001421  92.9079 267.2075 15.08839473117734,6917.882,95.438,540.73,538.764,0.0
49457.0,STARLINK-3132,PAYLOAD,2023-12-29 00:30:36,15.08840249,0.0001419,53.2157,217.9614,93.6064,266.5091,1.6271e-05,-2.9e-07,0.0,0 STARLINK-3132,1 49457U 21104BB  23363.02125792 -.00000029  00000-0  16271-4 0  9995,2 49457  53.2157 217.9614 0001419  93.6064 266.5091 15.08840249117758,6917.88,95.438,540.726,538.763,0.0
49457.0,STARLINK-3132,PAYLOAD,2023-12-29 21:10:36,15.08855634,0.0001416,53.2157,214.095,95.0747,265.0407,0.00015517,2.183e-05,0.0,0 STARLINK-3132,1 49457U 21104BB  23363.88236480  .00002183  00000-0  15517-3 0  9999,2 49457  53.2157 214.0950 0001416  95.0747 265.0407 15.08855634117883,6917.833,95.437,540.677,538.718,0.0
49457.0,STARLINK-3132,PAYLOAD,2023-12-30 14:39:52,15.08837789,0.0001535,53.216,210.8242,93.7567,266.36,4.0672e-05,3.59e-06,0.0,0 STARLINK-3132,1 49457U 21104BB  23364.61101922  .00000359  00000-0  40672-4 0  9997,2 49457  53.2160 210.8242 0001535  93.7567 266.3600 15.08837789117994,6917.887,95.438,540.814,538.69,0.0
49457.0,STARLINK-3132,PAYLOAD,2023-12-30 19:26:01,15.0883282,0.0001466,53.2159,209.932,116.334,243.7802,-8.6072e-06,-4.25e-06,0.0,0 STARLINK-3132,1 49457U 21104BB  23364.80974311 -.00000425  00000-0 -86072-5 0  9999,2 49457  53.2159 209.9320 0001466 116.3340 243.7802 15.08832820119099,6917.902,95.438,540.781,538.753,0.0
49457.0,STARLINK-3132,PAYLOAD,2023-12-31 19:16:47,15.0885784,0.0001713,53.2153,205.464,123.1846,236.931,5.0244e-05,5.12e-06,0.0,0 STARLINK-3132,1 49457U 21104BB  23365.80332977  .00000512  00000-0  50244-4 0  9992,2 49457  53.2153 205.4640 0001713 123.1846 236.9310 15.08857840119245,6917.826,95.436,540.876,538.506,0.0
49457.0,STARLINK-3132,PAYLOAD,2023-12-31 22:27:34,15.08857347,0.0001367,53.2155,204.8721,85.354,274.7609,2.369e-05,8.9e-07,0.0,0 STARLINK-3132,1 49457U 21104BB  23365.93581181  .00000089  00000-0  23690-4 0  9993,2 49457  53.2155 204.8721 0001367  85.3540 274.7609 15.08857347118191,6917.827,95.436,540.638,538.747,0.0
49457.0,STARLINK-3132,PAYLOAD,2024-01-01 19:07:35,15.08835395,0.0001282,53.2156,201.0092,98.5482,261.5656,0.00010642,1.406e-05,0.0,0 STARLINK-3132,1 49457U 21104BB  24001.79694134  .00001406  00000-0  10642-3 0  9994,2 49457  53.2156 201.0092 0001282  98.5482 261.5656 15.08835395119397,6917.894,95.438,540.646,538.873,0.0
49457.0,STARLINK-3132,PAYLOAD,2024-01-01 20:42:58,15.08835657,0.0001243,53.2155,200.7119,97.3629,262.7504,0.00011092,1.478e-05,0.0,0 STARLINK-3132,1 49457U 21104BB  24001.86318105  .00001478  00000-0  11092-3 0  9992,2 49457  53.2155 200.7119 0001243  97.3629 262.7504 15.08835657118338,6917.894,95.438,540.619,538.899,0.0
49457.0,STARLINK-3132,PAYLOAD,2024-01-02 12:36:50,15.08842166,0.0001105,53.2152,197.7385,105.9268,254.1846,1.3158e-05,-7.8e-07,0.0,0 STARLINK-3132,1 49457U 21104BB  24002.52558161 -.00000078  00000-0  13158-4 0  9996,2 49457  53.2152 197.7385 0001105 105.9268 254.1846 15.08842166118435,6917.874,95.437,540.503,538.974,0.0
49457.0,STARLINK-3132,PAYLOAD,2024-01-02 20:33:45,15.08846179,0.000104,53.2155,196.2522,93.3816,266.7295,3.3811e-05,2.5e-06,0.0,0 STARLINK-3132,1 49457U 21104BB  24002.85677759  .00000250  00000-0  33811-4 0  9996,2 49457  53.2155 196.2522 0001040  93.3816 266.7295 15.08846179118482,6917.862,95.437,540.446,539.007,0.0
49457.0,STARLINK-3132,PAYLOAD,2024-01-03 12:27:37,15.08836974,0.0001241,53.216,193.2847,65.9636,294.1486,4.0028e-05,3.49e-06,0.0,0 STARLINK-3132,1 49457U 21104BB  24003.51918267  .00000349  00000-0  40028-4 0  9999,2 49457  53.2160 193.2847 0001241  65.9636 294.1486 15.08836974119652,6917.89,95.438,540.613,538.896,0.0
49457.0,STARLINK-3132,PAYLOAD,2024-01-03 18:49:10,15.08794436,0.0001293,53.2161,192.0913,88.2046,271.9094,0.00051483,7.905e-05,0.0,0 STARLINK-3132,1 49457U 21104BB  24003.78415037  .00007905  00000-0  51483-3 0  9996,2 49457  53.2161 192.0913 0001293  88.2046 271.9094 15.08794436119692,6918.02,95.44,540.779,538.99,0.0
49457.0,STARLINK-3132,PAYLOAD,2024-01-04 12:18:24,15.08841666,0.000171,53.2165,188.8191,100.5129,259.6056,-1.6648e-05,-5.53e-06,0.0,0 STARLINK-3132,1 49457U 21104BB  24004.51278287 -.00000553  00000-0 -16648-4 0  9991,2 49457  53.2165 188.8191 0001710 100.5129 259.6056 15.08841666119803,6917.875,95.437,540.923,538.557,0.0
49457.0,STARLINK-3132,PAYLOAD,2024-01-04 17:04:33,15.08840355,0.0001381,53.2159,187.9275,89.5134,270.6016,2.8443e-05,1.65e-06,0.0,0 STARLINK-3132,1 49457U 21104BB  24004.71150175  .00000165  00000-0  28443-4 0  9991,2 49457  53.2159 187.9275 0001381  89.5134 270.6016 15.08840355118762,6917.879,95.438,540.7,538.789,0.0
49457.0,STARLINK-3132,PAYLOAD,2024-01-05 12:09:11,15.08838171,0.0001309,53.2155,184.3586,80.674,279.44,5.5965e-05,6.03e-06,0.0,0 STARLINK-3132,1 49457U 21104BB  24005.50638281  .00000603  00000-0  55965-4 0  9994,2 49457  53.2155 184.3586 0001309  80.6740 279.4400 15.08838171118889,6917.886,95.438,540.657,538.845,0.0
49457.0,STARLINK-3132,PAYLOAD,2024-01-05 18:30:44,15.08838354,0.0001296,53.2155,183.1688,86.8343,273.2798,5.3943e-05,5.71e-06,0.0,0 STARLINK-3132,1 49457U 21104BB  24005.77134280  .00000571  00000-0  53943-4 0  9991,2 49457  53.2155 183.1688 0001296  86.8343 273.2798 15.08838354119999,6917.885,95.438,540.647,538.854,0.0
49457.0,STARLINK-3132,PAYLOAD,2024-01-06 11:59:58,15.08838162,0.000135,53.2158,179.8983,92.596,267.5186,9.8133e-06,-1.32e-06,0.0,0 STARLINK-3132,1 49457U 21104BB  24006.49998508 -.00000132  00000-0  98133-5 0  9997,2 49457  53.2158 179.8983 0001350  92.5960 267.5186 15.08838162119031,6917.886,95.438,540.685,538.817,0.0
49457.0,STARLINK-3132,PAYLOAD,2024-01-06 18:21:31,15.08839139,0.0001282,53.2157,178.7083,89.3282,270.7857,1.2595e-05,-8.7e-07,0.0,0 STARLINK-3132,1 49457U 21104BB  24006.76494454 -.00000087  00000-0  12595-4 0  9994,2 49457  53.2157 178.7083 0001282  89.3282 270.7857 15.08839139119074,6917.883,95.438,540.635,538.861,0.0
49457.0,STARLINK-3132,PAYLOAD,2024-01-07 13:26:09,15.08836844,0.0001287,53.2157,175.1398,89.7262,270.3877,1.1695e-05,-1.02e-06,0.0,0 STARLINK-3132,1 49457U 21104BB  24007.55982710 -.00000102  00000-0  11695-4 0  9997,2 49457  53.2157 175.1398 0001287  89.7262 270.3877 15.08836844119192,6917.89,95.438,540.645,538.865,0.0
49457.0,STARLINK-3132,PAYLOAD,2024-01-07 16:36:55,15.08838033,0.0001271,53.2158,174.5449,91.0058,269.108,1.8876e-05,1.3e-07,0.0,0 STARLINK-3132,1 49457U 21104BB  24007.69230619  .00000013  00000-0  18876-4 0  9994,2 49457  53.2158 174.5449 0001271  91.0058 269.1080 15.08838033120281,6917.886,95.438,540.631,538.872,0.0
